SatCatId,ObjectName,LaunchYear,OrbitalPeriod,LaunchMass,StatusCode,Inclination,Status,UcsData,OrbitClassEstimated,LaunchSiteCountry,Owner,UseType,Purpose,LaunchVehicleClass,TLE1,TLE2,MeanMotion,Eccentricity,OrbitClass
59760,STARLINK-11098 [DTC],2024,91.74,-1.0,+,53.16,Active,0,LEO,USA,USA,Unknown,Unknown,Unknown,1 59760U 24091H   24269.51141228 -.00002870  00000+0 -18847-4 0  9990,2 59760  53.1577 299.7917 0001384  81.2455 278.8720 15.69699185 22245,15.69699185,0.0001384,LEO
59761,STARLINK-11117 [DTC],2024,91.74,-1.0,+,53.16,Active,0,LEO,USA,USA,Unknown,Unknown,Unknown,1 59761U 24091J   24269.50648882  .00007731  00000+0  68527-4 0  9997,2 59761  53.1575 299.7549 0001165  78.4970 281.6179 15.69741003 22249,15.69741003,0.0001165,LEO
59762,STARLINK-11110 [DTC],2024,91.74,-1.0,+,53.16,Active,0,LEO,USA,USA,Unknown,Unknown,Unknown,1 59762U 24091K   24269.37425858  .00003333  00000+0  32347-4 0  9994,2 59762  53.1571 300.3489 0001452  89.1088 271.0096 15.69718504 22225,15.69718504,0.0001452,LEO
59763,STARLINK-11104 [DTC],2024,91.74,-1.0,+,53.16,Active,0,LEO,USA,USA,Unknown,Unknown,Unknown,1 59763U 24091L   24269.36934980  .00002411  00000+0  24740-4 0  9999,2 59763  53.1565 300.3181 0001169  76.4040 283.7108 15.69724449 22229,15.69724449,0.0001169,LEO
59764,STARLINK-11111 [DTC],2024,91.74,-1.0,+,53.16,Active,0,LEO,USA,USA,Unknown,Unknown,Unknown,1 59764U 24091M   24269.35954150  .00003383  00000+0  32764-4 0  9994,2 59764  53.1566 300.2541 0001089 101.9681 258.1459 15.69715992 22224,15.69715992,0.0001089,LEO
59765,STARLINK-11106 [DTC],2024,91.74,-1.0,+,53.16,Active,0,LEO,USA,USA,Unknown,Unknown,Unknown,1 59765U 24091N   24269.49179035  .00000200  00000+0  65095-5 0  9990,2 59765  53.1570 299.6602 0001111  68.0079 292.1057 15.69706205 22240,15.69706205,0.0001111,LEO
59766,STARLINK-31739,2024,94.11,-1.0,+,53.16,Active,0,LEO,USA,USA,Unknown,Unknown,Unknown,1 59766U 24091P   24269.58106333  .00001896  00000+0  76148-4 0  9994,2 59766  53.1593 326.2687 0001350  71.9351 288.1797 15.30190043 21887,15.30190043,0.000135,LEO
59767,STARLINK-31828,2024,94.11,-1.0,+,53.16,Active,0,LEO,USA,USA,Unknown,Unknown,Unknown,1 59767U 24091Q   24269.59647273  .00002911  00000+0  11040-3 0  9997,2 59767  53.1586 329.1972 0001307  70.1928 289.9213 15.30195468 21846,15.30195468,0.0001307,LEO
59768,STARLINK-31826,2024,94.11,-1.0,+,53.16,Active,0,LEO,USA,USA,Unknown,Unknown,Unknown,1 59768U 24091R   24269.46901466 -.00000676  00000+0 -10708-4 0  9990,2 59768  53.1572 329.8297 0001188 108.1412 251.9718 15.30185908 21821,15.30185908,0.0001188,LEO
59769,STARLINK-31830,2024,94.11,-1.0,+,53.16,Active,0,LEO,USA,USA,Unknown,Unknown,Unknown,1 59769U 24091S   24269.47217823 -.00000430  00000+0 -23834-5 0  9992,2 59769  53.1568 329.8460 0001108 111.4833 248.6286 15.30188451 21824,15.30188451,0.0001108,LEO
59770,STARLINK-31829,2024,94.11,-1.0,+,53.16,Active,0,LEO,USA,USA,Unknown,Unknown,Unknown,1 59770U 24091T   24269.59331807  .00003694  00000+0  13691-3 0  9997,2 59770  53.1591 329.1816 0001376  74.5414 285.5739 15.30172847 21848,15.30172847,0.0001376,LEO
59771,STARLINK-31786,2024,94.11,-1.0,+,53.16,Active,0,LEO,USA,USA,Unknown,Unknown,Unknown,1 59771U 24091U   24269.54174107  .00016201  00000+0  55973-3 0  9998,2 59771  53.1588 329.5665 0001809 105.6445 254.4756 15.30094432 21838,15.30094432,0.0001809,LEO
59772,STARLINK-31835,2024,94.11,-1.0,+,53.16,Active,0,LEO,USA,USA,Unknown,Unknown,Unknown,1 59772U 24091V   24269.59014479  .00002794  00000+0  10644-3 0  9997,2 59772  53.1589 329.1584 0001275  79.9227 280.1917 15.30189711 21845,15.30189711,0.0001275,LEO
59773,COSMOS 2576,2024,93.55,-1.0,+,97.23,Active,0,LEO,Russia,Russia/USSR,Unknown,Unknown,Unknown,1 59773U 24092A   24269.68322505  .00052666  00000+0  13413-2 0  9990,2 59773  97.2308  20.2685 0009656 185.0084 175.1067 15.39343499 20275,15.39343499,0.0009656,LEO
59774,OBJECT B,2024,95.26,-1.0,+,97.6,Active,0,LEO,Russia,Russia/USSR,Unknown,Unknown,Unknown,1 59774U 24092B   24269.55322513  .00017396  00000+0  10200-2 0  9998,2 59774  97.5971  20.5499 0012445 209.3800 150.6731 15.11769584 19830,15.11769584,0.0012445,LEO
59775,OBJECT C,2024,95.24,-1.0,+,97.61,Active,0,LEO,Russia,Russia/USSR,Unknown,Unknown,Unknown,1 59775U 24092C   24269.27196881  .00018791  00000+0  10944-2 0  9990,2 59775  97.6099  20.5363 0012447 214.0850 145.9582 15.11998011 19800,15.11998011,0.0012447,LEO
59776,OBJECT D,2024,95.28,-1.0,+,97.61,Active,0,LEO,Russia,Russia/USSR,Unknown,Unknown,Unknown,1 59776U 24092D   24269.55952499  .00022368  00000+0  13232-2 0  9995,2 59776  97.6054  20.5342 0012475 188.5862 171.5156 15.11394480 19833,15.1139448,0.0012475,LEO
59777,OBJECT E,2024,95.28,-1.0,+,97.61,Active,0,LEO,Russia,Russia/USSR,Unknown,Unknown,Unknown,1 59777U 24092E   24269.55865445  .00022246  00000+0  13150-2 0  9994,2 59777  97.6053  20.5345 0012757 188.9009 171.1997 15.11420826 19839,15.11420826,0.0012757,LEO
59778,OBJECT F,2024,95.27,-1.0,+,97.61,Active,0,LEO,Russia,Russia/USSR,Unknown,Unknown,Unknown,1 59778U 24092F   24269.55340436  .00022836  00000+0  13473-2 0  9996,2 59778  97.6047  20.5349 0013028 190.0194 170.0778 15.11480287 19830,15.11480287,0.0013028,LEO
59779,OBJECT G,2024,100.61,-1.0,+,98.62,Active,0,LEO,Russia,Russia/USSR,Unknown,Unknown,Unknown,1 59779U 24092G   24269.57973438  .00000746  00000+0  29894-3 0  9994,2 59779  98.6170  20.5902 0011265 260.7987  99.1921 14.31236089 18818,14.31236089,0.0011265,LEO
59780,OBJECT H,2024,100.61,-1.0,+,98.62,Active,0,LEO,Russia,Russia/USSR,Unknown,Unknown,Unknown,1 59780U 24092H   24269.57912664  .00000747  00000+0  29912-3 0  9992,2 59780  98.6170  20.5897 0011498 261.4377  98.5503 14.31235856 18812,14.31235856,0.0011498,LEO
59781,OBJECT J,2024,100.61,-1.0,+,98.62,Active,0,LEO,Russia,Russia/USSR,Unknown,Unknown,Unknown,1 59781U 24092J   24269.57817995  .00000746  00000+0  29878-3 0  9994,2 59781  98.6170  20.5915 0011261 261.1134  98.8774 14.31236409 18818,14.31236409,0.0011261,LEO
59782,STARLINK-31363,2024,93.46,-1.0,+,43.0,Active,0,LEO,USA,USA,Unknown,Unknown,Unknown,1 59782U 24093A   24269.60498045  .00003506  00000+0  91193-4 0  9998,2 59782  43.0045 339.1326 0001739 288.5116  71.5552 15.40685297 21439,15.40685297,0.0001739,LEO
59783,STARLINK-31868,2024,93.46,-1.0,+,43.0,Active,0,LEO,USA,USA,Unknown,Unknown,Unknown,1 59783U 24093B   24268.92008609 -.00002162  00000+0 -44540-4 0  9999,2 59783  43.0036 339.9509 0001229 250.4419 109.6305 15.40681809 21365,15.40681809,0.0001229,LEO
59784,STARLINK-31848,2024,93.46,-1.0,+,43.01,Active,0,LEO,USA,USA,Unknown,Unknown,Unknown,1 59784U 24093C   24269.57389500  .00002033  00000+0  55945-4 0  9990,2 59784  43.0003 340.6715 0002268 294.4321  65.6298 15.40695417 21410,15.40695417,0.0002268,LEO
59785,STARLINK-31890,2024,93.46,-1.0,+,43.0,Active,0,LEO,USA,USA,Unknown,Unknown,Unknown,1 59785U 24093D   24269.57164895 -.00003184  00000+0 -68967-4 0  9997,2 59785  43.0020 340.6536 0001580 245.6390 114.4302 15.40707094 21415,15.40707094,0.000158,LEO
59786,STARLINK-31862,2024,93.46,-1.0,+,43.01,Active,0,LEO,USA,USA,Unknown,Unknown,Unknown,1 59786U 24093E   24269.56717808 -.00000280  00000+0  56157-6 0  9998,2 59786  43.0019 340.6207 0001592 264.2960  95.7715 15.40690174 21411,15.40690174,0.0001592,LEO
59787,STARLINK-31870,2024,93.46,-1.0,+,43.01,Active,0,LEO,USA,USA,Unknown,Unknown,Unknown,1 59787U 24093F   24269.50459025  .00001524  00000+0  43755-4 0  9996,2 59787  43.0000 341.0129 0001359 258.8259 101.2445 15.40688229 21401,15.40688229,0.0001359,LEO
59788,STARLINK-31888,2024,93.46,-1.0,+,43.0,Active,0,LEO,USA,USA,Unknown,Unknown,Unknown,1 59788U 24093G   24269.56270026  .00001484  00000+0  42811-4 0  9992,2 59788  43.0014 340.5852 0001492 245.6643 114.4057 15.40687032 21364,15.40687032,0.0001492,LEO
59789,STARLINK-31863,2024,93.46,-1.0,+,43.0,Active,0,LEO,USA,USA,Unknown,Unknown,Unknown,1 59789U 24093H   24269.56493866 -.00002850  00000+0 -60992-4 0  9992,2 59789  43.0022 340.6026 0001395 244.3035 115.7678 15.40697303 21412,15.40697303,0.0001395,LEO
59790,STARLINK-31873,2024,93.46,-1.0,+,43.0,Active,0,LEO,USA,USA,Unknown,Unknown,Unknown,1 59790U 24093J   24269.56045940  .00000704  00000+0  24125-4 0  9992,2 59790  43.0021 340.5688 0001328 244.6012 115.4707 15.40686814 21415,15.40686814,0.0001328,LEO
59791,STARLINK-31865,2024,93.46,-1.0,+,43.0,Active,0,LEO,USA,USA,Unknown,Unknown,Unknown,1 59791U 24093K   24269.49338692  .00002937  00000+0  77563-4 0  9998,2 59791  43.0048 340.9240 0000673 234.6870 125.3924 15.40694467 21409,15.40694467,6.73e-05,LEO
59792,STARLINK-31893,2024,93.46,-1.0,+,43.0,Active,0,LEO,USA,USA,Unknown,Unknown,Unknown,1 59792U 24093L   24269.55598214 -.00000173  00000+0  31274-5 0  9995,2 59792  43.0058 340.5314 0001834 261.8400  98.2249 15.40686687 21425,15.40686687,0.0001834,LEO
59793,STARLINK-31901,2024,92.97,-1.0,+,43.01,Active,0,LEO,USA,USA,Unknown,Unknown,Unknown,1 59793U 24093M   24269.54274851  .00218542  00000+0  39221-2 0  9990,2 59793  43.0042 339.5626 0004219  48.5522 311.5699 15.48362257 21420,15.48362257,0.0004219,LEO
59794,STARLINK-31823,2024,93.46,-1.0,+,43.0,Active,0,LEO,USA,USA,Unknown,Unknown,Unknown,1 59794U 24093N   24269.55148937  .00001214  00000+0  36334-4 0  9997,2 59794  43.0030 340.4951 0001129 257.7707 102.3023 15.40696699 21414,15.40696699,0.0001129,LEO
59795,STARLINK-31916,2024,93.46,-1.0,+,43.0,Active,0,LEO,USA,USA,Unknown,Unknown,Unknown,1 59795U 24093P   24269.54926051  .00002515  00000+0  67497-4 0  9997,2 59795  43.0039 340.4792 0001399 230.5780 129.4953 15.40679567 21413,15.40679567,0.0001399,LEO
59797,STARLINK-31907,2024,93.46,-1.0,+,43.01,Active,0,LEO,USA,USA,Unknown,Unknown,Unknown,1 59797U 24093R   24269.48218447  .00001991  00000+0  54935-4 0  9995,2 59797  43.0022 340.8363 0001266 154.5098 205.5821 15.40691336 21402,15.40691336,0.0001266,LEO
